{
  "type": "FeatureCollection",
  "features": [
    {
      "type": "Feature",
      "properties": {
        "norad_id": 36281,
        "name": "FENGYUN 1C DEB",
        "group": "fengyun-1c-debris",
        "lat": -62.68356160191326,
        "lon": -65.87593795894418,
        "alt_km": 1237.7624560836657,
        "timestamp": "2025-12-20T03:42:47.681701+00:00",
        "meta_object_name": "FENGYUN 1C DEB",
        "meta_object_id": "1999-025DXJ",
        "meta_epoch": "2025-12-19T17:26:46.756320",
        "meta_mean_motion": 13.60292343,
        "meta_eccentricity": 0.0291323,
        "meta_inclination": 99.2597,
        "meta_ra_of_asc_node": 275.3071,
        "meta_arg_of_pericenter": 92.8189,
        "meta_mean_anomaly": 270.6329,
        "meta_ephemeris_type": 0,
        "meta_classification_type": "U",
        "meta_norad_cat_id": 36281,
        "meta_element_set_no": 999,
        "meta_rev_at_epoch": 84612,
        "meta_bstar": 0.0028242,
        "meta_mean_motion_dot": 2.765e-05,
        "meta_mean_motion_ddot": 0,
        "tle_line1": "1 36281U 99025DXJ 25353.72693005  .00002765  00000+0  28242-2 0  9994",
        "tle_line2": "2 36281  99.2597 275.3071 0291323  92.8189 270.6329 13.60292343846128"
      },
      "geometry": {
        "type": "Point",
        "coordinates": [
          -65.87593795894418,
          -62.68356160191326
        ]
      }
    },
    {
      "type": "Feature",
      "properties": {
        "norad_id": 36283,
        "name": "FENGYUN 1C DEB",
        "group": "fengyun-1c-debris",
        "lat": 62.96129782460313,
        "lon": -58.096476217873324,
        "alt_km": 503.3925160840172,
        "timestamp": "2025-12-20T03:42:47.681711+00:00",
        "meta_object_name": "FENGYUN 1C DEB",
        "meta_object_id": "1999-025DXL",
        "meta_epoch": "2025-12-15T15:02:17.579040",
        "meta_mean_motion": 15.06429973,
        "meta_eccentricity": 0.00674448,
        "meta_inclination": 99.4211,
        "meta_ra_of_asc_node": 315.3599,
        "meta_arg_of_pericenter": 41.5581,
        "meta_mean_anomaly": 319.0739,
        "meta_ephemeris_type": 0,
        "meta_classification_type": "U",
        "meta_norad_cat_id": 36283,
        "meta_element_set_no": 999,
        "meta_rev_at_epoch": 66709,
        "meta_bstar": 0.00125131,
        "meta_mean_motion_dot": 0.0001938,
        "meta_mean_motion_ddot": 0,
        "tle_line1": "1 36283U 99025DXL 25349.62659235  .00019380  00000+0  12513-2 0  9992",
        "tle_line2": "2 36283  99.4211 315.3599 0067444  41.5581 319.0739 15.06429973667090"
      },
      "geometry": {
        "type": "Point",
        "coordinates": [
          -58.096476217873324,
          62.96129782460313
        ]
      }
    },
    {
      "type": "Feature",
      "properties": {
        "norad_id": 36644,
        "name": "FENGYUN 1C DEB",
        "group": "fengyun-1c-debris",
        "lat": 81.34639354626107,
        "lon": 28.52874611794388,
        "alt_km": 949.0791836994949,
        "timestamp": "2025-12-20T03:42:47.681722+00:00",
        "meta_object_name": "FENGYUN 1C DEB",
        "meta_object_id": "1999-025DXN",
        "meta_epoch": "2025-12-06T15:56:19.275936",
        "meta_mean_motion": 13.59167664,
        "meta_eccentricity": 0.02857814,
        "meta_inclination": 98.4234,
        "meta_ra_of_asc_node": 120.1104,
        "meta_arg_of_pericenter": 196.1478,
        "meta_mean_anomaly": 163.0413,
        "meta_ephemeris_type": 0,
        "meta_classification_type": "U",
        "meta_norad_cat_id": 36644,
        "meta_element_set_no": 999,
        "meta_rev_at_epoch": 61485,
        "meta_bstar": 0.0026178612,
        "meta_mean_motion_dot": 2.485e-05,
        "meta_mean_motion_ddot": 0,
        "tle_line1": "1 36644U 99025DXN 25340.66411199  .00002485  00000+0  26179-2 0  9994",
        "tle_line2": "2 36644  98.4234 120.1104 0285781 196.1478 163.0413 13.59167664614851"
      },
      "geometry": {
        "type": "Point",
        "coordinates": [
          28.52874611794388,
          81.34639354626107
        ]
      }
    },
    {
      "type": "Feature",
      "properties": {
        "norad_id": 36647,
        "name": "FENGYUN 1C DEB",
        "group": "fengyun-1c-debris",
        "lat": -35.850782464096085,
        "lon": 136.75729272752545,
        "alt_km": 814.3097724780073,
        "timestamp": "2025-12-20T03:42:47.681732+00:00",
        "meta_object_name": "FENGYUN 1C DEB",
        "meta_object_id": "1999-025DXR",
        "meta_epoch": "2025-12-17T15:22:01.202880",
        "meta_mean_motion": 13.88856712,
        "meta_eccentricity": 0.02401846,
        "meta_inclination": 96.1202,
        "meta_ra_of_asc_node": 130.6548,
        "meta_arg_of_pericenter": 285.5466,
        "meta_mean_anomaly": 71.9303,
        "meta_ephemeris_type": 0,
        "meta_classification_type": "U",
        "meta_norad_cat_id": 36647,
        "meta_element_set_no": 999,
        "meta_rev_at_epoch": 30480,
        "meta_bstar": 0.0022455743,
        "meta_mean_motion_dot": 3.394e-05,
        "meta_mean_motion_ddot": 0,
        "tle_line1": "1 36647U 99025DXR 25351.64029170  .00003394  00000+0  22456-2 0  9995",
        "tle_line2": "2 36647  96.1202 130.6548 0240184 285.5466  71.9303 13.88856712304807"
      },
      "geometry": {
        "type": "Point",
        "coordinates": [
          136.75729272752545,
          -35.850782464096085
        ]
      }
    },
    {
      "type": "Feature",
      "properties": {
        "norad_id": 36652,
        "name": "FENGYUN 1C DEB",
        "group": "fengyun-1c-debris",
        "lat": -37.94650531000895,
        "lon": 83.48921419572933,
        "alt_km": 786.0316847251697,
        "timestamp": "2025-12-20T03:42:47.681743+00:00",
        "meta_object_name": "FENGYUN 1C DEB",
        "meta_object_id": "1999-025DXW",
        "meta_epoch": "2025-12-18T16:27:02.767680",
        "meta_mean_motion": 14.2285718,
        "meta_eccentricity": 0.00507325,
        "meta_inclination": 98.9416,
        "meta_ra_of_asc_node": 74.9462,
        "meta_arg_of_pericenter": 335.3431,
        "meta_mean_anomaly": 24.5321,
        "meta_ephemeris_type": 0,
        "meta_classification_type": "U",
        "meta_norad_cat_id": 36652,
        "meta_element_set_no": 999,
        "meta_rev_at_epoch": 64409,
        "meta_bstar": 0.0012856315,
        "meta_mean_motion_dot": 2.881e-05,
        "meta_mean_motion_ddot": 0,
        "tle_line1": "1 36652U 99025DXW 25352.68544870  .00002881  00000+0  12856-2 0  9998",
        "tle_line2": "2 36652  98.9416  74.9462 0050732 335.3431  24.5321 14.22857180644090"
      },
      "geometry": {
        "type": "Point",
        "coordinates": [
          83.48921419572933,
          -37.94650531000895
        ]
      }
    },
    {
      "type": "Feature",
      "properties": {
        "norad_id": 36657,
        "name": "FENGYUN 1C DEB",
        "group": "fengyun-1c-debris",
        "lat": -22.32201271510329,
        "lon": -37.76618524154811,
        "alt_km": 749.6347569739182,
        "timestamp": "2025-12-20T03:42:47.681752+00:00",
        "meta_object_name": "FENGYUN 1C DEB",
        "meta_object_id": "1999-025DYB",
        "meta_epoch": "2025-12-15T16:17:35.899008",
        "meta_mean_motion": 14.65547343,
        "meta_eccentricity": 0.01057726,
        "meta_inclination": 99.4128,
        "meta_ra_of_asc_node": 141.0178,
        "meta_arg_of_pericenter": 58.1622,
        "meta_mean_anomaly": 302.9822,
        "meta_ephemeris_type": 0,
        "meta_classification_type": "U",
        "meta_norad_cat_id": 36657,
        "meta_element_set_no": 999,
        "meta_rev_at_epoch": 66299,
        "meta_bstar": 0.00037231163,
        "meta_mean_motion_dot": 2.126e-05,
        "meta_mean_motion_ddot": 0,
        "tle_line1": "1 36657U 99025DYB 25349.67888772  .00002126  00000+0  37231-3 0  9997",
        "tle_line2": "2 36657  99.4128 141.0178 0105772  58.1622 302.9822 14.65547343662990"
      },
      "geometry": {
        "type": "Point",
        "coordinates": [
          -37.76618524154811,
          -22.32201271510329
        ]
      }
    },
    {
      "type": "Feature",
      "properties": {
        "norad_id": 36659,
        "name": "FENGYUN 1C DEB",
        "group": "fengyun-1c-debris",
        "lat": -80.12331448797428,
        "lon": 91.3949929424269,
        "alt_km": 1027.0217066746918,
        "timestamp": "2025-12-20T03:42:47.681763+00:00",
        "meta_object_name": "FENGYUN 1C DEB",
        "meta_object_id": "1999-025DYD",
        "meta_epoch": "2025-12-18T07:09:04.054176",
        "meta_mean_motion": 13.87384482,
        "meta_eccentricity": 0.01357919,
        "meta_inclination": 99.8541,
        "meta_ra_of_asc_node": 356.081,
        "meta_arg_of_pericenter": 60.2917,
        "meta_mean_anomaly": 301.1674,
        "meta_ephemeris_type": 0,
        "meta_classification_type": "U",
        "meta_norad_cat_id": 36659,
        "meta_element_set_no": 999,
        "meta_rev_at_epoch": 60502,
        "meta_bstar": 0.00061832075,
        "meta_mean_motion_dot": 7.35e-06,
        "meta_mean_motion_ddot": 0,
        "tle_line1": "1 36659U 99025DYD 25352.29796359  .00000735  00000+0  61832-3 0  9998",
        "tle_line2": "2 36659  99.8541 356.0810 0135791  60.2917 301.1674 13.87384482605024"
      },
      "geometry": {
        "type": "Point",
        "coordinates": [
          91.3949929424269,
          -80.12331448797428
        ]
      }
    }
  ]
}